[{"OBJECT_NAME":"GEOSCAN 2 (RS92S2)","OBJECT_ID":"2025-155Q","EPOCH":"2026-03-09T23:01:48.939744","MEAN_MOTION":15.28709337,"ECCENTRICITY":0.00085277,"INCLINATION":97.4463,"RA_OF_ASC_NODE":37.5259,"ARG_OF_PERICENTER":140.9505,"MEAN_ANOMALY":219.2352,"EPHEMERIS_TYPE":0,"CLASSIFICATION_TYPE":"U","NORAD_CAT_ID":64890,"ELEMENT_SET_NO":999,"REV_AT_EPOCH":6561,"BSTAR":0.00051551761,"MEAN_MOTION_DOT":0.00014341,"MEAN_MOTION_DDOT":0},{"OBJECT_NAME":"STARLINK-36455","OBJECT_ID":"2026-005Q","EPOCH":"2026-03-09T11:25:49.214784","MEAN_MOTION":15.28426751,"ECCENTRICITY":0.00011351,"INCLINATION":42.998,"RA_OF_ASC_NODE":239.2005,"ARG_OF_PERICENTER":255.4454,"MEAN_ANOMALY":104.6272,"EPHEMERIS_TYPE":0,"CLASSIFICATION_TYPE":"U","NORAD_CAT_ID":67418,"ELEMENT_SET_NO":999,"REV_AT_EPOCH":866,"BSTAR":0.0011723562,"MEAN_MOTION_DOT":0.00032991,"MEAN_MOTION_DDOT":0}]
